#Pass ID: 20250127_114133_METEOR-M2 4
#Satellite: METEOR-M2 4
#Configuration: METEOR-M2 4
#Start time: 2025-01-27 11:41:38.409340

#LorettStation: 1.0.0 05.05.2024
#Station: Regia
#Location: 37.494653 lon 55.929028 lat
#TLE: 1 59051U 24039A   25026.91661649  .00000122  00000+0  74269-4 0  9991
#TLE: 2 59051  98.6309 349.6759 0006768 187.3202 172.7878 14.22329254 47296

#Time	Az	El	Level	SNR
#Closed at: 2025-01-27 11:41:33.409977